H1 CPF  1  DGF 2022 08 15 11  7271 larets     NONE      
H2   304206 5557    27944 2022 08 15 00 00 00 2022 08 22 00 00 00    30 1 1  0 0 0
H5  0.0650
H9
10 0 59808  72000.000000  0      -1050478.053       2348776.823      -6593018.903
10 0 59808  72030.000000  0      -1042206.715       2561590.807      -6514481.488
10 0 59808  72060.000000  0      -1031964.670       2771795.416      -6429362.461
10 0 59808  72090.000000  0      -1019773.881       2979170.698      -6337746.503
10 0 59808  72120.000000  0      -1005659.208       3183499.515      -6239724.807
10 0 59808  72150.000000  0       -989648.381       3384567.771      -6135394.998
10 0 59808  72180.000000  0       -971771.954       3582164.626      -6024861.043
10 0 59808  72210.000000  0       -952063.265       3776082.725      -5908233.165
10 0 59808  72240.000000  0       -930558.388       3966118.414      -5785627.742
10 0 59808  72270.000000  0       -907296.083       4152071.953      -5657167.205
10 0 59808  72300.000000  0       -882317.747       4333747.733      -5522979.925
10 0 59808  72330.000000  0       -855667.351       4510954.486      -5383200.098
10 0 59808  72360.000000  0       -827391.380       4683505.490      -5237967.620
10 0 59808  72390.000000  0       -797538.776       4851218.771      -5087427.958
10 0 59808  72420.000000  0       -766160.862       5013917.303      -4931732.015
10 0 59808  72450.000000  0       -733311.275       5171429.199      -4771035.989
10 0 59808  72480.000000  0       -699045.893       5323587.903      -4605501.224
10 0 59808  72510.000000  0       -663422.755       5470232.374      -4435294.059
10 0 59808  72540.000000  0       -626501.982       5611207.261      -4260585.667
10 0 59808  72570.000000  0       -588345.693       5746363.081      -4081551.895
10 0 59808  72600.000000  0       -549017.918       5875556.386      -3898373.090
10 0 59808  72630.000000  0       -508584.510       5998649.921      -3711233.929
10 0 59808  72660.000000  0       -467113.051       6115512.786      -3520323.240
10 0 59808  72690.000000  0       -424672.758       6226020.583      -3325833.817
10 0 59808  72720.000000  0       -381334.388       6330055.566      -3127962.230
10 0 59808  72750.000000  0       -337170.132       6427506.773      -2926908.630
10 0 59808  72780.000000  0       -292253.518       6518270.161      -2722876.550
10 0 59808  72810.000000  0       -246659.308       6602248.723      -2516072.699
10 0 59808  72840.000000  0       -200463.387       6679352.609      -2306706.759
10 0 59808  72870.000000  0       -153742.661       6749499.232      -2094991.171
10 0 59808  72900.000000  0       -106574.943       6812613.368      -1881140.917
10 0 59808  72930.000000  0        -59038.844       6868627.248      -1665373.306
10 0 59808  72960.000000  0        -11213.656       6917480.646      -1447907.747
10 0 59808  72990.000000  0         36820.760       6959120.946      -1228965.525
10 0 59808  73020.000000  0         84984.089       6993503.216      -1008769.573
10 0 59808  73050.000000  0        133195.678       7020590.263       -787544.242
10 0 59808  73080.000000  0        181374.656       7040352.684       -565515.066
10 0 59808  73110.000000  0        229440.051       7052768.906       -342908.530
10 0 59808  73140.000000  0        277310.906       7057825.219       -119951.827
10 0 59808  73170.000000  0        324906.401       7055515.797        103127.375
10 0 59808  73200.000000  0        372145.972       7045842.707        326101.177
10 0 59808  73230.000000  0        418949.425       7028815.918        548741.686
10 0 59808  73260.000000  0        465237.061       7004453.288        770821.259
10 0 59808  73290.000000  0        510929.786       6972780.555        992112.739
10 0 59808  73320.000000  0        555949.231       6933831.303       1212389.698
10 0 59808  73350.000000  0        600217.863       6887646.937       1431426.677
10 0 59808  73380.000000  0        643659.105       6834276.633       1648999.421
10 0 59808  73410.000000  0        686197.441       6773777.282       1864885.121
10 0 59808  73440.000000  0        727758.535       6706213.434       2078862.642
10 0 59808  73470.000000  0        768269.333       6631657.224       2290712.755
10 0 59808  73500.000000  0        807658.177       6550188.298       2500218.369
10 0 59808  73530.000000  0        845854.910       6461893.733       2707164.759
10 0 59808  73560.000000  0        882790.982       6366867.942       2911339.805
10 0 59808  73590.000000  0        918399.552       6265212.559       3112534.213
10 0 59808  73620.000000  0        952615.587       6157036.318       3310541.736
10 0 59808  73650.000000  0        985375.964       6042454.937       3505159.383
10 0 59808  73680.000000  0       1016619.564       5921590.989       3696187.620
10 0 59808  73710.000000  0       1046287.373       5794573.785       3883430.588
10 0 59808  73740.000000  0       1074322.573       5661539.227       4066696.328
10 0 59808  73770.000000  0       1100670.626       5522629.651       4245796.983
10 0 59808  73800.000000  0       1125279.352       5377993.653       4420549.005
10 0 59808  73830.000000  0       1148099.007       5227785.912       4590773.335
10 0 59808  73860.000000  0       1169082.352       5072167.013       4756295.578
10 0 59808  73890.000000  0       1188184.734       4911303.275       4916946.178
10 0 59808  73920.000000  0       1205364.158       4745366.567       5072560.596
10 0 59808  73950.000000  0       1220581.351       4574534.116       5222979.478
10 0 59808  73980.000000  0       1233799.832       4398988.303       5368048.808
10 0 59808  74010.000000  0       1244985.964       4218916.475       5507620.069
10 0 59808  74040.000000  0       1254109.014       4034510.732       5641550.394
10 0 59808  74070.000000  0       1261141.201       3845967.719       5769702.718
10 0 59808  74100.000000  0       1266057.744       3653488.408       5891945.909
10 0 59808  74130.000000  0       1268836.904       3457277.873       6008154.909
10 0 59808  74160.000000  0       1269460.021       3257545.067       6118210.852
10 0 59808  74190.000000  0       1267911.553       3054502.595       6222001.188
10 0 59808  74220.000000  0       1264179.098       2848366.479       6319419.790
10 0 59808  74250.000000  0       1258253.431       2639355.926       6410367.066
10 0 59808  74280.000000  0       1250128.518       2427693.088       6494750.056
10 0 59808  74310.000000  0       1239801.539       2213602.821       6572482.524
10 0 59808  74340.000000  0       1227272.898       1997312.437       6643485.048
10 0 59808  74370.000000  0       1212546.237       1779051.460       6707685.088
10 0 59808  74400.000000  0       1195628.435       1559051.375       6765017.062
10 0 59808  74430.000000  0       1176529.612       1337545.386       6815422.406
10 0 59808  74460.000000  0       1155263.127       1114768.161       6858849.631
10 0 59808  74490.000000  0       1131845.566        890955.587       6895254.371
10 0 59808  74520.000000  0       1106296.733        666344.517       6924599.429
10 0 59808  74550.000000  0       1078639.636        441172.523       6946854.814
10 0 59808  74580.000000  0       1048900.461        215677.639       6961997.778
10 0 59808  74610.000000  0       1017108.550         -9901.893       6970012.836
10 0 59808  74640.000000  0        983296.371       -235327.880       6970891.786
10 0 59808  74670.000000  0        947499.484       -460362.436       6964633.717
10 0 59808  74700.000000  0        909756.503       -684768.232       6951245.000
10 0 59808  74730.000000  0        870109.056       -908308.751       6930739.290
10 0 59808  74760.000000  0        828601.736      -1130748.535       6903137.511
10 0 59808  74790.000000  0        785282.054      -1351853.440       6868467.835
10 0 59808  74820.000000  0        740200.379      -1571390.882       6826765.658
10 0 59808  74850.000000  0        693409.885      -1789130.090       6778073.561
10 0 59808  74880.000000  0        644966.485      -2004842.346       6722441.274
10 0 59808  74910.000000  0        594928.769      -2218301.234       6659925.625
10 0 59808  74940.000000  0        543357.933      -2429282.885       6590590.490
10 0 59808  74970.000000  0        490317.697      -2637566.218       6514506.716
10 0 59808  75000.000000  0        435874.239      -2842933.175       6431752.048
10 0 59808  75030.000000  0        380096.105      -3045168.943       6342411.052
10 0 59808  75060.000000  0        323054.134      -3244062.185       6246575.030
10 0 59808  75090.000000  0        264821.367      -3439405.263       6144341.932
10 0 59808  75120.000000  0        205472.959      -3630994.460       6035816.262
10 0 59808  75150.000000  0        145086.083      -3818630.194       5921108.969
10 0 59808  75180.000000  0         83739.833      -4002117.236       5800337.339
10 0 59808  75210.000000  0         21515.130      -4181264.908       5673624.880
10 0 59808  75240.000000  0        -41505.382      -4355887.296       5541101.202
10 0 59808  75270.000000  0       -105237.441      -4525803.442       5402901.890
10 0 59808  75300.000000  0       -169595.275      -4690837.550       5259168.370
10 0 59808  75330.000000  0       -234491.713      -4850819.173       5110047.768
10 0 59808  75360.000000  0       -299838.299      -5005583.401       4955692.759
10 0 59808  75390.000000  0       -365545.408      -5154971.043       4796261.414
10 0 59808  75420.000000  0       -431522.364      -5298828.797       4631917.033
10 0 59808  75450.000000  0       -497677.561      -5437009.416       4462827.974
10 0 59808  75480.000000  0       -563918.584      -5569371.867       4289167.483
10 0 59808  75510.000000  0       -630152.328      -5695781.477       4111113.515
10 0 59808  75540.000000  0       -696285.133      -5816110.083       3928848.545
10 0 59808  75570.000000  0       -762222.898      -5930236.165       3742559.386
99
